[Satellite]
VERSION=1.1
NAME=CARTOSAT-2B
NICKNAME=CARTOSAT-2B
TLE1=1 36795U 10035A   17186.27024227  .00000034  00000-0  11676-4 0  9990
TLE2=2 36795  97.9227 246.9570 0014065 337.4101  22.6502 14.78672490376850
